CTC1_L_00618007-03
1 51494U 25863WK  26070.40841435  .00000000  00000+0  00000-0 0  9990
2 51494  50.0000 180.0000 0000000   0.0000 144.0000  4.55247085    19
CTC1_L_00618007-04
1 51495U 22259GH  26070.40841435  .00000000  00000+0  00000-0 0  9997
2 51495  50.0000 180.0000 0000000   0.0000 180.0000  4.55247085    10
CTC1_L_00618007-05
1 51496U 23742BL  26070.40841435  .00000000  00000+0  00000-0 0  9996
2 51496  50.0000 180.0000 0000000   0.0000 216.0000  4.55247085    11
CTC1_L_00618007-06
1 51497U 22599ZX  26070.40841435  .00000000  00000+0  00000-0 0  9996
2 51497  50.0000 180.0000 0000000   0.0000 252.0000  4.55247085    12
CTC1_L_00618007-07
1 51498U 25912JZ  26070.40841435  .00000000  00000+0  00000-0 0  9999
2 51498  50.0000 180.0000 0000000   0.0000 288.0000  4.55247085    12
CTC1_L_00618007-08
1 51499U 24329HJ  26070.40841435  .00000000  00000+0  00000-0 0  9991
2 51499  50.0000 180.0000 0000000   0.0000 324.0000  4.55247085    14
CTC1_L_00618007-09
1 51500U 23142MY  26070.40841435  .00000000  00000+0  00000-0 0  9996
2 51500  50.0000 180.0000 0000000   0.0000   0.0000  4.55247085    18
CTC1_L_00618007-10
1 51501U 25292KY  26070.40841435  .00000000  00000+0  00000-0 0  9995
2 51501  50.0000 180.0000 0000000   0.0000  36.0000  4.55247085    18
CTC1_L_00618008-01
1 51502U 25676JX  26070.40841435  .00000000  00000+0  00000-0 0  9992
2 51502  50.0000 210.0000 0000000   0.0000  84.0000  4.55247085    16
CTC1_L_00618008-02
1 51503U 25310YW  26070.40841435  .00000000  00000+0  00000-0 0  9998
2 51503  50.0000 210.0000 0000000   0.0000 120.0000  4.55247085    18
CTC1_L_00618008-03
1 51504U 23781MR  26070.40841435  .00000000  00000+0  00000-0 0  9999
2 51504  50.0000 210.0000 0000000   0.0000 156.0000  4.55247085    18
CTC1_L_00618008-04
1 51505U 23807HE  26070.40841435  .00000000  00000+0  00000-0 0  9999
2 51505  50.0000 210.0000 0000000   0.0000 192.0000  4.55247085    19
CTC1_L_00618008-05
1 51506U 25457LN  26070.40841435  .00000000  00000+0  00000-0 0  9993
2 51506  50.0000 210.0000 0000000   0.0000 228.0000  4.55247085    10
CTC1_L_00618008-06
1 51507U 25463CW  26070.40841435  .00000000  00000+0  00000-0 0  9991
2 51507  50.0000 210.0000 0000000   0.0000 264.0000  4.55247085    11
CTC1_L_00618008-07
1 51508U 22325KZ  26070.40841435  .00000000  00000+0  00000-0 0  9996
2 51508  50.0000 210.0000 0000000   0.0000 300.0000  4.55247085    13
CTC1_L_00618008-08
1 51509U 24164WZ  26070.40841435  .00000000  00000+0  00000-0 0  9990
2 51509  50.0000 210.0000 0000000   0.0000 336.0000  4.55247085    13
CTC1_L_00618008-09
1 51510U 25664WS  26070.40841435  .00000000  00000+0  00000-0 0  9998
2 51510  50.0000 210.0000 0000000   0.0000  12.0000  4.55247085    16
CTC1_L_00618008-10
1 51511U 26553AR  26070.40841435  .00000000  00000+0  00000-0 0  9997
2 51511  50.0000 210.0000 0000000   0.0000  48.0000  4.55247085    16
CTC1_L_00618009-01
1 51512U 26289QF  26070.40841435  .00000000  00000+0  00000-0 0  9994
2 51512  50.0000 240.0000 0000000   0.0000  96.0000  4.55247085    13
CTC1_L_00618009-02
1 51513U 26711TF  26070.40841435  .00000000  00000+0  00000-0 0  9995
2 51513  50.0000 240.0000 0000000   0.0000 132.0000  4.55247085    15
CTC1_L_00618009-03
1 51514U 25817PV  26070.40841435  .00000000  00000+0  00000-0 0  9992
2 51514  50.0000 240.0000 0000000   0.0000 168.0000  4.55247085    15
CTC1_L_00618009-04
1 51515U 24305XF  26070.40841435  .00000000  00000+0  00000-0 0  9994
2 51515  50.0000 240.0000 0000000   0.0000 204.0000  4.55247085    17
CTC1_L_00618009-05
1 51516U 23777MB  26070.40841435  .00000000  00000+0  00000-0 0  9997
2 51516  50.0000 240.0000 0000000   0.0000 240.0000  4.55247085    18
CTC1_L_00618009-06
1 51517U 22926DF  26070.40841435  .00000000  00000+0  00000-0 0  9993
2 51517  50.0000 240.0000 0000000   0.0000 276.0000  4.55247085    18
CTC1_L_00618009-07
1 51518U 25331GZ  26070.40841435  .00000000  00000+0  00000-0 0  9997
2 51518  50.0000 240.0000 0000000   0.0000 312.0000  4.55247085    10
CTC1_L_00618009-08
1 51519U 23183AM  26070.40841435  .00000000  00000+0  00000-0 0  9991
2 51519  50.0000 240.0000 0000000   0.0000 348.0000  4.55247085    10
CTC1_L_00618009-09
1 51520U 24838O   26070.40841435  .00000000  00000+0  00000-0 0  9991
2 51520  50.0000 240.0000 0000000   0.0000  24.0000  4.55247085    13
CTC1_L_00618009-10
1 51521U 24593YQ  26070.40841435  .00000000  00000+0  00000-0 0  9990
2 51521  50.0000 240.0000 0000000   0.0000  60.0000  4.55247085    14
CTC1_L_00618010-01
1 51522U 25948XD  26070.40841435  .00000000  00000+0  00000-0 0  9996
2 51522  50.0000 270.0000 0000000   0.0000 108.0000  4.55247085    11
CTC1_L_00618010-02
1 51523U 23855TX  26070.40841435  .00000000  00000+0  00000-0 0  9992
2 51523  50.0000 270.0000 0000000   0.0000 144.0000  4.55247085    12
CTC1_L_00618010-03
1 51524U 22651EV  26070.40841435  .00000000  00000+0  00000-0 0  9996
2 51524  50.0000 270.0000 0000000   0.0000 180.0000  4.55247085    13
CTC1_L_00618010-04
1 51525U 24695GU  26070.40841435  .00000000  00000+0  00000-0 0  9997
2 51525  50.0000 270.0000 0000000   0.0000 216.0000  4.55247085    14
CTC1_L_00618010-05
1 51526U 25203PG  26070.40841435  .00000000  00000+0  00000-0 0  9994
2 51526  50.0000 270.0000 0000000   0.0000 252.0000  4.55247085    15
CTC1_L_00618010-06
1 51527U 26263EW  26070.40841435  .00000000  00000+0  00000-0 0  9992
2 51527  50.0000 270.0000 0000000   0.0000 288.0000  4.55247085    15
CTC1_L_00618010-07
1 51528U 25862MN  26070.40841435  .00000000  00000+0  00000-0 0  9997
2 51528  50.0000 270.0000 0000000   0.0000 324.0000  4.55247085    17
CTC1_L_00618010-08
1 51529U 26400AI  26070.40841435  .00000000  00000+0  00000-0 0  9997
2 51529  50.0000 270.0000 0000000   0.0000   0.0000  4.55247085    19
CTC1_L_00618010-09
1 51530U 23126CR  26070.40841435  .00000000  00000+0  00000-0 0  9991
2 51530  50.0000 270.0000 0000000   0.0000  36.0000  4.55247085    10
CTC1_L_00618010-10
1 51531U 25657HL  26070.40841435  .00000000  00000+0  00000-0 0  9993
2 51531  50.0000 270.0000 0000000   0.0000  72.0000  4.55247085    11
CTC1_L_00618011-01
1 51532U 22843RE  26070.40841435  .00000000  00000+0  00000-0 0  9998
2 51532  50.0000 300.0000 0000000   0.0000 120.0000  4.55247085    10
CTC1_L_00618011-02
1 51533U 23501AA  26070.40841435  .00000000  00000+0  00000-0 0  9991
2 51533  50.0000 300.0000 0000000   0.0000 156.0000  4.55247085    10
CTC1_L_00618011-03
1 51534U 24016IH  26070.40841435  .00000000  00000+0  00000-0 0  9994
2 51534  50.0000 300.0000 0000000   0.0000 192.0000  4.55247085    11
CTC1_L_00618011-04
1 51535U 25354LY  26070.40841435  .00000000  00000+0  00000-0 0  9991
2 51535  50.0000 300.0000 0000000   0.0000 228.0000  4.55247085    12
CTC1_L_00618011-05
1 51536U 25911DC  26070.40841435  .00000000  00000+0  00000-0 0  9991
2 51536  50.0000 300.0000 0000000   0.0000 264.0000  4.55247085    13
CTC1_L_00618011-06
1 51537U 25472MH  26070.40841435  .00000000  00000+0  00000-0 0  9994
2 51537  50.0000 300.0000 0000000   0.0000 300.0000  4.55247085    15
CTC1_L_00618011-07
1 51538U 23956LE  26070.40841435  .00000000  00000+0  00000-0 0  9990
2 51538  50.0000 300.0000 0000000   0.0000 336.0000  4.55247085    15
CTC1_L_00618011-08
1 51539U 25365SA  26070.40841435  .00000000  00000+0  00000-0 0  9997
2 51539  50.0000 300.0000 0000000   0.0000  12.0000  4.55247085    17
CTC1_L_00618011-09
1 51540U 26334MO  26070.40841435  .00000000  00000+0  00000-0 0  9996
2 51540  50.0000 300.0000 0000000   0.0000  48.0000  4.55247085    18
CTC1_L_00618011-10
1 51541U 23776EE  26070.40841435  .00000000  00000+0  00000-0 0  9994
2 51541  50.0000 300.0000 0000000   0.0000  84.0000  4.55247085    19
CTC1_L_00618012-01
1 51542U 22693LZ  26070.40841435  .00000000  00000+0  00000-0 0  9992
2 51542  50.0000 330.0000 0000000   0.0000 132.0000  4.55247085    17
CTC1_L_00618012-02
1 51543U 25751DA  26070.40841435  .00000000  00000+0  00000-0 0  9991
2 51543  50.0000 330.0000 0000000   0.0000 168.0000  4.55247085    17
CTC1_L_00618012-03
1 51544U 23399SE  26070.40841435  .00000000  00000+0  00000-0 0  9998
2 51544  50.0000 330.0000 0000000   0.0000 204.0000  4.55247085    19
CTC1_L_00618012-04
1 51545U 23075CN  26070.40841435  .00000000  00000+0  00000-0 0  9990
2 51545  50.0000 330.0000 0000000   0.0000 240.0000  4.55247085    10
CTC1_L_00618012-05
1 51546U 26031RT  26070.40841435  .00000000  00000+0  00000-0 0  9996
2 51546  50.0000 330.0000 0000000   0.0000 276.0000  4.55247085    10
CTC1_L_00618012-06
1 51547U 22856GM  26070.40841435  .00000000  00000+0  00000-0 0  9998
2 51547  50.0000 330.0000 0000000   0.0000 312.0000  4.55247085    12
CTC1_L_00618012-07
1 51548U 22892TV  26070.40841435  .00000000  00000+0  00000-0 0  9999
2 51548  50.0000 330.0000 0000000   0.0000 348.0000  4.55247085    12
CTC1_L_00618012-08
1 51549U 24762JC  26070.40841435  .00000000  00000+0  00000-0 0  9998
2 51549  50.0000 330.0000 0000000   0.0000  24.0000  4.55247085    14
CTC1_L_00618012-09
1 51550U 22385WI  26070.40841435  .00000000  00000+0  00000-0 0  9999
2 51550  50.0000 330.0000 0000000   0.0000  60.0000  4.55247085    16
CTC1_L_00618012-10
1 51551U 22029CP  26070.40841435  .00000000  00000+0  00000-0 0  9995
2 51551  50.0000 330.0000 0000000   0.0000  96.0000  4.55247085    16
